{"type":"FeatureCollection","properties":{"title":"Lake Karāpiro draft traffic lanes","note":"DRAFT — keep-right rotation. East inlet clipped. North turnaround = weather buoy. Direction selects the correct lane; after turning at the buoy or south end, the expected lane flips.","noGoWidthM":20,"spanKm":18.7,"upBearingDeg":132,"downBearingDeg":312,"excludeZones":[{"name":"Far-east inlet","minLat":-37.9468,"maxLat":-37.9422,"minLon":175.6585,"maxLon":175.68}],"turnaround":{"lat":-37.9268,"lon":175.5438,"radiusM":40,"name":"Weather buoy (turnaround)"},"source":"Lake Karāpiro, Karāpiro, Waipā District, Waikato, New Zealand / Aotearoa","generatedAt":"2026-10-10T03:59:06.190Z","editedAt":"2026-10-10T04:09:10.093Z"},"features":[{"type":"Feature","properties":{"id":"water","kind":"lake","name":"Water (OSM, east inlet clipped)","style":"water"},"geometry":{"type":"Polygon","coordinates":[[[175.5377215,-37.9250988],[175.5387576,-37.9266708],[175.5396956,-37.9271807],[175.5411078,-37.9265735],[175.5419674,-37.9278297],[175.5418199,-37.9289198],[175.5433335,-37.9327385],[175.5423732,-37.9336989],[175.5434237,-37.9346428],[175.5431127,-37.9356134],[175.5449633,-37.9354864],[175.546637,-37.937898],[175.55014,-37.9399414],[175.5511689,-37.9412402],[175.5548392,-37.942759],[175.5561037,-37.9438736],[175.557736,-37.9438209],[175.5598442,-37.9450858],[175.5626766,-37.9452592],[175.5658416,-37.9464268],[175.5663298,-37.9471628],[175.5714625,-37.9472855],[175.5743432,-37.9468033],[175.5743873,-37.9474732],[175.5733059,-37.948037],[175.5726553,-37.9476926],[175.572388,-37.9481573],[175.5734278,-37.9494778],[175.5729241,-37.9503778],[175.5743468,-37.9501924],[175.5738706,-37.9490546],[175.5754788,-37.9495113],[175.577087,-37.9493237],[175.5767793,-37.9508101],[175.5780139,-37.9519502],[175.5768724,-37.9506081],[175.577299,-37.9485449],[175.5766385,-37.9482419],[175.5767652,-37.9490914],[175.5760476,-37.9487365],[175.5751846,-37.9490619],[175.5734258,-37.9488263],[175.5729039,-37.9482595],[175.574757,-37.9479156],[175.5761211,-37.9466046],[175.5771066,-37.9464773],[175.5789709,-37.9476322],[175.5793451,-37.9495957],[175.5790737,-37.9487862],[175.5799176,-37.9477402],[175.5883601,-37.9494884],[175.5914543,-37.948782],[175.6043074,-37.9509131],[175.6081612,-37.9502837],[175.6164728,-37.9522667],[175.6234873,-37.9547742],[175.6251249,-37.9560918],[175.6309932,-37.9550423],[175.6337463,-37.9537895],[175.6344805,-37.9545522],[175.6345824,-37.9537942],[175.6364278,-37.9531682],[175.6387505,-37.9511513],[175.6426505,-37.9498518],[175.6471137,-37.9491581],[175.6513837,-37.9497334],[175.6542591,-37.9511716],[175.6559556,-37.952378],[175.6565296,-37.9544253],[175.6577825,-37.953157],[175.6578468,-37.9541679],[175.6560361,-37.9558761],[175.6568519,-37.9587717],[175.6556544,-37.9617831],[175.6552671,-37.9684129],[175.6535689,-37.9768937],[175.6542567,-37.9795253],[175.6522749,-37.9826983],[175.6523662,-37.983692],[175.6531264,-37.9842852],[175.6559026,-37.9845043],[175.65689,-37.985754],[175.6563251,-37.9864242],[175.6549153,-37.9861066],[175.6542941,-37.9866798],[175.6547852,-37.9885519],[175.6564448,-37.9884994],[175.6569749,-37.9876299],[175.6583126,-37.9915819],[175.6575659,-37.9999332],[175.6569621,-38.0013716],[175.6552657,-38.0025862],[175.6554483,-38.0032501],[175.6566137,-38.0036263],[175.6585314,-38.00542],[175.6581801,-38.0063096],[175.6511298,-38.0079406],[175.6504524,-38.0092156],[175.6506155,-38.010293],[175.6523969,-38.0121611],[175.6521962,-38.0147803],[175.6512427,-38.0156204],[175.6507535,-38.018368],[175.6521209,-38.0191092],[175.6521959,-38.0209487],[175.6528138,-38.0216788],[175.6540213,-38.021535],[175.6567454,-38.0230393],[175.656956,-38.0237915],[175.6555337,-38.0291048],[175.6586507,-38.0435834],[175.6584915,-38.0443032],[175.657043,-38.0452643],[175.6569306,-38.0465138],[175.6571505,-38.0480323],[175.6580081,-38.048364],[175.6596889,-38.0511509],[175.6599827,-38.0554533],[175.6590209,-38.0577475],[175.6575044,-38.0588255],[175.6568146,-38.0604444],[175.6549246,-38.0608245],[175.6554707,-38.0615046],[175.6573201,-38.0610359],[175.657653,-38.0595822],[175.6594452,-38.0583079],[175.6606504,-38.0557128],[175.6608258,-38.0522025],[175.6582528,-38.0465777],[175.6589812,-38.0457564],[175.6599285,-38.0473044],[175.6597881,-38.0481117],[175.6603427,-38.0475864],[175.6596201,-38.044927],[175.6599315,-38.0415542],[175.6573211,-38.0300519],[175.6578249,-38.0266227],[175.6583908,-38.0276356],[175.6599825,-38.0276836],[175.6589319,-38.0273384],[175.6579043,-38.0261222],[175.6584304,-38.0212584],[175.6555958,-38.0170733],[175.657026,-38.0157588],[175.6569256,-38.0143059],[175.6565618,-38.0130408],[175.6542284,-38.0115384],[175.6542661,-38.0098779],[175.6562733,-38.0078714],[175.6579041,-38.0079109],[175.6592464,-38.0068533],[175.6597248,-38.0056782],[175.6585628,-38.0013826],[175.659293,-37.9989373],[175.6588858,-37.9972001],[175.659644,-37.9951198],[175.6596241,-37.9901759],[175.6607303,-37.9897377],[175.6607601,-37.9891352],[175.6583848,-37.9852399],[175.6578883,-37.9815774],[175.6568557,-37.9807166],[175.6586231,-37.9789478],[175.6609266,-37.9693052],[175.6585635,-37.9670822],[175.6584046,-37.9652975],[175.6609743,-37.9607747],[175.6600433,-37.9567559],[175.6607382,-37.9550224],[175.6604861,-37.9539057],[175.6625298,-37.9528511],[175.6631868,-37.9534059],[175.6630013,-37.9526542],[175.6633551,-37.9529608],[175.6637014,-37.9525801],[175.6637447,-37.9533171],[175.6644068,-37.9532115],[175.6644314,-37.9546707],[175.6653999,-37.9540326],[175.6635128,-37.9505718],[175.6623306,-37.9508893],[175.6622749,-37.9519635],[175.6605505,-37.9528219],[175.6599076,-37.9512799],[175.6623958,-37.9499375],[175.6627881,-37.9502307],[175.6630795,-37.9491251],[175.6652097,-37.9480464],[175.6634208,-37.9474043],[175.6636846,-37.9468402],[175.6585,-37.9466916],[175.6585,-37.9440328],[175.6585,-37.9466884],[175.6621465,-37.9470472],[175.6616703,-37.948811],[175.6589465,-37.9513085],[175.6570124,-37.9512148],[175.6563877,-37.9495998],[175.6549071,-37.9487825],[175.6472467,-37.9473273],[175.6412182,-37.9484102],[175.628702,-37.9537748],[175.6245035,-37.95351],[175.6160849,-37.9497732],[175.6130988,-37.9490811],[175.6130057,-37.9486437],[175.6110228,-37.9491235],[175.6097836,-37.9487385],[175.6073803,-37.9490008],[175.6049932,-37.9483959],[175.5866898,-37.9466911],[175.582999,-37.9457942],[175.5787933,-37.9440894],[175.5793174,-37.9431062],[175.5814847,-37.9427551],[175.5813345,-37.9418709],[175.5812486,-37.942552],[175.579135,-37.9421163],[175.5787542,-37.9427593],[175.5779297,-37.9428626],[175.5775756,-37.943916],[175.5765831,-37.9442183],[175.5738925,-37.9431017],[175.5657172,-37.9427548],[175.5599021,-37.9409822],[175.5556428,-37.9382449],[175.5552995,-37.9368191],[175.5509918,-37.9337475],[175.5486228,-37.9306906],[175.5481722,-37.9277837],[175.5489285,-37.9262942],[175.5485576,-37.9238042],[175.5455597,-37.9203572],[175.5462893,-37.9196336],[175.5487193,-37.9207423],[175.5483216,-37.919966],[175.5457367,-37.9183386],[175.5465575,-37.9175134],[175.5492826,-37.9166543],[175.557753,-37.923933],[175.5588474,-37.9243393],[175.5597218,-37.9240261],[175.558268,-37.9239034],[175.5564441,-37.9214871],[175.5495071,-37.9159668],[175.5457466,-37.9166482],[175.544975,-37.9175854],[175.5441159,-37.9168132],[175.5440362,-37.9174796],[175.543161,-37.9177951],[175.5451305,-37.9190327],[175.5451244,-37.9213202],[175.5477752,-37.9236199],[175.5466371,-37.9228986],[175.54343,-37.9222192],[175.5429893,-37.9229198],[175.5416214,-37.9231229],[175.5413746,-37.9241046],[175.5402693,-37.92389],[175.5391896,-37.9252726],[175.5377215,-37.9250988]],[[175.5768733,-37.9487047],[175.5769405,-37.9486598],[175.5769974,-37.9486822],[175.5770621,-37.9486782],[175.5771526,-37.9487251],[175.5771422,-37.9488596],[175.5770259,-37.948882],[175.5769509,-37.9488025],[175.5768733,-37.9487047]],[[175.6565842,-37.9826494],[175.6567687,-37.981604],[175.6578818,-37.9822214],[175.657445,-37.983065],[175.6565842,-37.9826494]],[[175.6567016,-37.9814349],[175.656774,-37.9814011],[175.6567848,-37.9813038],[175.6568411,-37.9812573],[175.6568679,-37.9811664],[175.6569886,-37.9811432],[175.6570771,-37.9811601],[175.6570423,-37.9812468],[175.6569833,-37.9812911],[175.6569323,-37.9813715],[175.6569082,-37.9814391],[175.6569457,-37.9815131],[175.6568813,-37.9815258],[175.656825,-37.9815702],[175.6567392,-37.9815554],[175.6567365,-37.9815131],[175.6567016,-37.9814349]]]}},{"type":"Feature","properties":{"id":"turnaround","kind":"turnaround","name":"Weather buoy (turnaround)","style":"buoy","radiusM":40},"geometry":{"type":"Polygon","coordinates":[[[175.5438,-37.92644],[175.54386,-37.926443],[175.543918,-37.926453],[175.543975,-37.926468],[175.544028,-37.926488],[175.544078,-37.926515],[175.544122,-37.926546],[175.544162,-37.926581],[175.544195,-37.92662],[175.544221,-37.926662],[175.544241,-37.926707],[175.544252,-37.926753],[175.544256,-37.9268],[175.544252,-37.926847],[175.544241,-37.926893],[175.544221,-37.926938],[175.544195,-37.92698],[175.544162,-37.927019],[175.544122,-37.927054],[175.544078,-37.927085],[175.544028,-37.927112],[175.543975,-37.927132],[175.543918,-37.927147],[175.54386,-37.927157],[175.5438,-37.92716],[175.54374,-37.927157],[175.543682,-37.927147],[175.543625,-37.927132],[175.543572,-37.927112],[175.543522,-37.927085],[175.543478,-37.927054],[175.543438,-37.927019],[175.543405,-37.92698],[175.543379,-37.926938],[175.543359,-37.926893],[175.543348,-37.926847],[175.543344,-37.9268],[175.543348,-37.926753],[175.543359,-37.926707],[175.543379,-37.926662],[175.543405,-37.92662],[175.543438,-37.926581],[175.543478,-37.926546],[175.543522,-37.926515],[175.543572,-37.926488],[175.543625,-37.926468],[175.543682,-37.926453],[175.54374,-37.926443],[175.5438,-37.92644]]]}},{"type":"Feature","properties":{"id":"turnaround_point","kind":"turnaround","name":"Weather buoy (turnaround)","style":"buoyMarker"},"geometry":{"type":"Point","coordinates":[175.5438,-37.9268]}},{"type":"Feature","properties":{"id":"lane_up","kind":"lane_up","name":"Up lane (right when going up)","style":"up"},"geometry":{"type":"Polygon","coordinates":[[[175.543638,-37.927136],[175.544508,-37.927663],[175.544872,-37.928429],[175.545241,-37.929718],[175.545667,-37.931054],[175.545931,-37.932118],[175.546365,-37.933494],[175.547413,-37.934693],[175.54847,-37.935527],[175.549759,-37.936485],[175.551095,-37.937332],[175.552077,-37.938064],[175.553073,-37.939165],[175.554173,-37.940224],[175.555588,-37.94103],[175.556711,-37.941657],[175.558172,-37.942381],[175.559728,-37.943005],[175.561012,-37.943436],[175.562682,-37.943811],[175.564326,-37.944211],[175.56564,-37.944577],[175.567313,-37.944998],[175.569021,-37.945245],[175.570416,-37.945293],[175.572127,-37.945245],[175.573859,-37.945349],[175.575297,-37.945482],[175.577112,-37.945436],[175.578976,-37.945792],[175.58045,-37.946394],[175.582148,-37.946978],[175.583837,-37.947279],[175.585172,-37.94752],[175.586836,-37.947845],[175.588546,-37.948086],[175.59029,-37.948107],[175.591668,-37.948096],[175.59336,-37.948288],[175.595052,-37.948503],[175.596403,-37.948679],[175.598085,-37.948955],[175.599781,-37.949174],[175.60114,-37.94931],[175.602832,-37.949527],[175.604543,-37.949682],[175.605925,-37.949692],[175.60764,-37.949697],[175.609335,-37.949854],[175.610689,-37.950012],[175.61238,-37.950239],[175.614043,-37.950597],[175.61534,-37.950968],[175.616912,-37.951509],[175.618461,-37.952087],[175.61971,-37.952528],[175.621257,-37.953114],[175.62281,-37.953696],[175.624029,-37.954198],[175.625606,-37.954752],[175.627346,-37.95486],[175.629067,-37.954571],[175.630384,-37.954225],[175.631964,-37.953677],[175.633577,-37.953072],[175.634878,-37.952559],[175.636333,-37.951768],[175.637715,-37.950962],[175.63889,-37.950419],[175.640399,-37.949791],[175.641978,-37.949307],[175.643305,-37.949041],[175.64498,-37.94875],[175.646651,-37.948491],[175.647995,-37.948436],[175.649685,-37.948609],[175.651301,-37.949],[175.652563,-37.949417],[175.654113,-37.949976],[175.655462,-37.950751],[175.656456,-37.951576],[175.657881,-37.952682],[175.658704,-37.95394],[175.658513,-37.955072],[175.658251,-37.956503],[175.658405,-37.957889],[175.65851,-37.959264],[175.658379,-37.960357],[175.658004,-37.961672],[175.65738,-37.962946],[175.656964,-37.963994],[175.65676,-37.965355],[175.656835,-37.966716],[175.65712,-37.967807],[175.657484,-37.96921],[175.657502,-37.970616],[175.657304,-37.971692],[175.656977,-37.973016],[175.656659,-37.974341],[175.656422,-37.975408],[175.656225,-37.976754],[175.656238,-37.978108],[175.656055,-37.979157],[175.655481,-37.980468],[175.655198,-37.981853],[175.655117,-37.98298],[175.657493,-37.985297],[175.657718,-37.987327],[175.658555,-37.990185],[175.658713,-37.99203],[175.658704,-37.993816],[175.658578,-37.995595],[175.658383,-37.997014],[175.65826,-37.998794],[175.658018,-38.000563],[175.657604,-38.002],[175.657811,-38.003722],[175.658455,-38.00535],[175.65814,-38.006528],[175.657192,-38.007881],[175.65667,-38.007881],[175.657542,-38.006576],[175.657465,-38.00487],[175.65656,-38.003237],[175.656372,-38.001716],[175.657459,-37.999948],[175.657648,-37.998587],[175.657817,-37.997151],[175.658104,-37.995054],[175.658193,-37.993643],[175.658166,-37.992254],[175.656557,-37.98977],[175.654895,-37.987548],[175.65341,-37.985012],[175.652586,-37.982362],[175.652978,-37.981342],[175.653552,-37.980482],[175.654173,-37.97903],[175.653947,-37.977919],[175.653746,-37.97659],[175.653883,-37.974894],[175.654092,-37.973818],[175.654321,-37.97276],[175.654597,-37.971494],[175.654752,-37.970779],[175.654949,-37.969874],[175.65519,-37.967829],[175.655192,-37.966507],[175.655228,-37.965298],[175.655442,-37.963411],[175.655611,-37.962307],[175.655817,-37.961517],[175.656241,-37.960275],[175.656566,-37.959321],[175.656639,-37.958154],[175.656471,-37.956093],[175.656751,-37.955189],[175.657401,-37.954391],[175.656722,-37.953282],[175.65571,-37.952492],[175.654988,-37.951667],[175.653468,-37.950841],[175.652331,-37.950256],[175.651231,-37.949785],[175.649487,-37.949426],[175.648291,-37.949274],[175.647062,-37.949303],[175.645043,-37.949612],[175.643756,-37.949762],[175.642512,-37.949934],[175.640679,-37.950445],[175.639477,-37.950898],[175.638387,-37.951427],[175.636822,-37.952643],[175.635643,-37.953467],[175.634308,-37.953924],[175.632215,-37.954561],[175.630855,-37.955047],[175.629414,-37.955371],[175.626812,-37.955755],[175.625123,-37.955705],[175.623389,-37.954905],[175.622262,-37.954338],[175.620959,-37.953911],[175.619066,-37.953312],[175.617817,-37.952839],[175.61665,-37.952399],[175.614792,-37.951899],[175.613579,-37.951622],[175.612334,-37.951318],[175.610363,-37.950829],[175.609101,-37.950526],[175.607811,-37.950334],[175.605673,-37.95056],[175.604157,-37.950732],[175.602781,-37.950658],[175.600802,-37.950328],[175.599362,-37.950139],[175.598008,-37.949881],[175.596093,-37.949429],[175.594745,-37.949208],[175.593418,-37.949036],[175.59153,-37.948915],[175.589992,-37.94909],[175.588422,-37.949139],[175.586374,-37.948763],[175.585059,-37.948519],[175.583677,-37.948359],[175.581241,-37.948049],[175.580308,-37.948001],[175.579145,-37.94759],[175.576746,-37.946825],[175.575371,-37.947019],[175.574002,-37.947167],[175.571939,-37.947152],[175.570386,-37.947259],[175.568643,-37.94725],[175.56628,-37.946783],[175.565059,-37.946275],[175.563853,-37.945795],[175.561881,-37.94522],[175.560322,-37.944971],[175.558844,-37.94453],[175.556697,-37.943814],[175.555449,-37.943307],[175.554189,-37.942659],[175.551733,-37.941427],[175.550783,-37.940727],[175.55029,-37.940236],[175.548798,-37.939275],[175.547484,-37.938449],[175.546506,-37.937605],[175.54419,-37.935792],[175.542911,-37.934345],[175.542941,-37.933064],[175.542857,-37.931349],[175.542294,-37.929911],[175.542081,-37.929293],[175.542078,-37.929382],[175.541857,-37.928989],[175.543638,-37.927136]]]}},{"type":"Feature","properties":{"id":"lane_down","kind":"lane_down","name":"Down lane (right when going down)","style":"down"},"geometry":{"type":"Polygon","coordinates":[[[175.547053,-37.923135],[175.54811,-37.924746],[175.548505,-37.928169],[175.548451,-37.929772],[175.548614,-37.930458],[175.549402,-37.931935],[175.550135,-37.932838],[175.550581,-37.933256],[175.551428,-37.933884],[175.552442,-37.934563],[175.553282,-37.935075],[175.554699,-37.936395],[175.555736,-37.937727],[175.556511,-37.938714],[175.557409,-37.939404],[175.558374,-37.940017],[175.559458,-37.940657],[175.561033,-37.941425],[175.562094,-37.941837],[175.563216,-37.942156],[175.565205,-37.942532],[175.566623,-37.942797],[175.568068,-37.942967],[175.569767,-37.943094],[175.57079,-37.943155],[175.571974,-37.943171],[175.574092,-37.943386],[175.57559,-37.943797],[175.577107,-37.94388],[175.579257,-37.943955],[175.581058,-37.944817],[175.582785,-37.945679],[175.584381,-37.946086],[175.585671,-37.946407],[175.587015,-37.946679],[175.589035,-37.94688],[175.590237,-37.946958],[175.591481,-37.947075],[175.593675,-37.947409],[175.595057,-37.947582],[175.596418,-37.947699],[175.59854,-37.947906],[175.599893,-37.948],[175.601174,-37.948071],[175.603253,-37.948263],[175.604601,-37.94845],[175.605835,-37.948649],[175.607826,-37.948888],[175.609259,-37.948961],[175.610711,-37.948982],[175.612816,-37.949033],[175.614243,-37.94931],[175.615654,-37.949765],[175.617577,-37.950573],[175.618889,-37.951059],[175.620142,-37.951463],[175.621967,-37.952266],[175.623151,-37.952774],[175.624467,-37.953195],[175.626473,-37.953698],[175.627516,-37.953816],[175.628992,-37.953525],[175.630153,-37.95314],[175.631291,-37.952727],[175.633067,-37.951929],[175.634318,-37.951366],[175.635436,-37.95091],[175.637199,-37.950197],[175.638491,-37.94965],[175.639716,-37.949092],[175.641701,-37.948427],[175.643138,-37.948086],[175.644537,-37.947776],[175.646551,-37.947465],[175.648052,-37.947418],[175.649596,-37.947558],[175.651765,-37.948144],[175.653202,-37.948522],[175.65457,-37.948831],[175.656325,-37.949888],[175.657591,-37.950774],[175.658953,-37.951743],[175.660352,-37.953707],[175.660421,-37.955266],[175.660278,-37.956644],[175.660446,-37.95789],[175.660682,-37.958931],[175.660791,-37.960199],[175.660303,-37.962137],[175.659476,-37.963387],[175.658772,-37.964347],[175.658497,-37.965688],[175.658659,-37.966633],[175.659205,-37.967468],[175.660293,-37.968813],[175.660502,-37.970191],[175.660303,-37.971655],[175.659794,-37.973571],[175.659512,-37.974632],[175.659241,-37.97568],[175.658918,-37.977197],[175.658776,-37.978035],[175.658245,-37.979067],[175.657515,-37.980758],[175.657685,-37.982106],[175.657963,-37.983324],[175.658469,-37.985272],[175.659413,-37.986828],[175.660336,-37.989331],[175.659439,-37.992154],[175.659454,-37.993636],[175.65941,-37.995084],[175.659131,-37.997246],[175.659117,-37.998659],[175.659051,-38.00014],[175.658962,-38.002653],[175.65915,-38.003839],[175.659382,-38.004871],[175.658812,-38.006852],[175.657942,-38.007881],[175.65742,-38.007881],[175.658352,-38.006594],[175.658682,-38.005334],[175.658035,-38.003687],[175.657832,-38.00201],[175.658243,-38.000591],[175.658488,-37.998808],[175.65861,-37.997028],[175.658805,-37.995609],[175.658932,-37.993821],[175.658939,-37.992001],[175.658695,-37.990143],[175.657943,-37.987318],[175.657718,-37.985221],[175.655345,-37.98299],[175.655425,-37.981873],[175.655702,-37.980512],[175.656276,-37.979201],[175.656466,-37.978118],[175.656453,-37.976763],[175.656648,-37.975433],[175.656883,-37.974374],[175.657202,-37.97305],[175.657529,-37.971723],[175.65773,-37.970627],[175.657711,-37.969191],[175.657344,-37.96777],[175.657061,-37.966695],[175.656988,-37.965361],[175.657188,-37.96403],[175.657595,-37.963006],[175.658222,-37.961724],[175.658604,-37.960386],[175.658738,-37.959265],[175.658633,-37.957875],[175.658479,-37.956509],[175.658739,-37.955097],[175.658927,-37.953903],[175.658064,-37.952575],[175.656618,-37.95145],[175.655611,-37.950615],[175.654228,-37.949821],[175.652654,-37.949252],[175.651377,-37.94883],[175.649733,-37.948433],[175.648006,-37.948256],[175.646622,-37.948313],[175.644933,-37.948574],[175.643252,-37.948866],[175.641907,-37.949136],[175.640305,-37.949628],[175.638779,-37.950262],[175.637588,-37.950813],[175.6362,-37.951622],[175.634761,-37.952404],[175.633477,-37.952911],[175.631869,-37.953514],[175.630301,-37.954058],[175.629009,-37.954397],[175.627331,-37.95468],[175.625662,-37.954578],[175.624128,-37.954035],[175.622912,-37.953535],[175.621356,-37.952951],[175.619806,-37.952365],[175.618556,-37.951923],[175.617006,-37.951345],[175.615425,-37.950801],[175.614111,-37.950425],[175.612429,-37.950064],[175.610725,-37.949834],[175.609364,-37.949676],[175.607653,-37.949518],[175.605927,-37.949512],[175.604558,-37.949503],[175.602864,-37.949349],[175.601173,-37.949132],[175.599814,-37.948997],[175.598127,-37.948778],[175.596445,-37.948502],[175.595089,-37.948325],[175.593394,-37.94811],[175.591685,-37.947917],[175.590291,-37.947927],[175.588567,-37.947907],[175.586884,-37.947669],[175.585225,-37.947345],[175.583888,-37.947104],[175.58222,-37.946807],[175.580548,-37.946231],[175.579053,-37.945623],[175.577136,-37.945258],[175.575305,-37.945302],[175.57388,-37.94517],[175.572131,-37.945065],[175.570416,-37.945113],[175.569048,-37.945066],[175.567369,-37.944823],[175.565712,-37.944406],[175.564397,-37.94404],[175.562747,-37.943638],[175.561086,-37.943266],[175.559825,-37.942843],[175.558284,-37.942225],[175.556837,-37.941507],[175.555721,-37.940883],[175.554329,-37.940093],[175.553255,-37.939056],[175.552251,-37.937948],[175.551244,-37.937196],[175.549909,-37.936349],[175.548629,-37.935398],[175.54759,-37.934579],[175.546573,-37.933419],[175.546153,-37.932079],[175.545889,-37.931014],[175.545466,-37.929693],[175.545216,-37.928374],[175.544845,-37.927464],[175.543962,-37.926464],[175.547053,-37.923135]]]}},{"type":"Feature","properties":{"id":"no_go","kind":"hazard","name":"No-go / safety zone (~20 m)","style":"nogo"},"geometry":{"type":"Polygon","coordinates":[[[175.543962,-37.926464],[175.544845,-37.927464],[175.545216,-37.928374],[175.545466,-37.929693],[175.545889,-37.931014],[175.546153,-37.932079],[175.546573,-37.933419],[175.54759,-37.934579],[175.548629,-37.935398],[175.549909,-37.936349],[175.551244,-37.937196],[175.552251,-37.937948],[175.553255,-37.939056],[175.554329,-37.940093],[175.555721,-37.940883],[175.556837,-37.941507],[175.558284,-37.942225],[175.559825,-37.942843],[175.561086,-37.943266],[175.562747,-37.943638],[175.564397,-37.94404],[175.565712,-37.944406],[175.567369,-37.944823],[175.569048,-37.945066],[175.570416,-37.945113],[175.572131,-37.945065],[175.57388,-37.94517],[175.575305,-37.945302],[175.577136,-37.945258],[175.579053,-37.945623],[175.580548,-37.946231],[175.58222,-37.946807],[175.583888,-37.947104],[175.585225,-37.947345],[175.586884,-37.947669],[175.588567,-37.947907],[175.590291,-37.947927],[175.591685,-37.947917],[175.593394,-37.94811],[175.595089,-37.948325],[175.596445,-37.948502],[175.598127,-37.948778],[175.599814,-37.948997],[175.601173,-37.949132],[175.602864,-37.949349],[175.604558,-37.949503],[175.605927,-37.949512],[175.607653,-37.949518],[175.609364,-37.949676],[175.610725,-37.949834],[175.612429,-37.950064],[175.614111,-37.950425],[175.615425,-37.950801],[175.617006,-37.951345],[175.618556,-37.951923],[175.619806,-37.952365],[175.621356,-37.952951],[175.622912,-37.953535],[175.624128,-37.954035],[175.625662,-37.954578],[175.627331,-37.95468],[175.629009,-37.954397],[175.630301,-37.954058],[175.631869,-37.953514],[175.633477,-37.952911],[175.634761,-37.952404],[175.6362,-37.951622],[175.637588,-37.950813],[175.638779,-37.950262],[175.640305,-37.949628],[175.641907,-37.949136],[175.643252,-37.948866],[175.644933,-37.948574],[175.646622,-37.948313],[175.648006,-37.948256],[175.649733,-37.948433],[175.651377,-37.94883],[175.652654,-37.949252],[175.654228,-37.949821],[175.655611,-37.950615],[175.656618,-37.95145],[175.658064,-37.952575],[175.658927,-37.953903],[175.658739,-37.955097],[175.658479,-37.956509],[175.658633,-37.957875],[175.658738,-37.959265],[175.658604,-37.960386],[175.658222,-37.961724],[175.657595,-37.963006],[175.657188,-37.96403],[175.656988,-37.965361],[175.657061,-37.966695],[175.657344,-37.96777],[175.657711,-37.969191],[175.65773,-37.970627],[175.657529,-37.971723],[175.657202,-37.97305],[175.656883,-37.974374],[175.656648,-37.975433],[175.656453,-37.976763],[175.656466,-37.978118],[175.656276,-37.979201],[175.655702,-37.980512],[175.655425,-37.981873],[175.655345,-37.98299],[175.656409,-37.983784],[175.657182,-37.98446],[175.657831,-37.985192],[175.658158,-37.98731],[175.658826,-37.99013],[175.658939,-37.992001],[175.658932,-37.993821],[175.658805,-37.995609],[175.65861,-37.997028],[175.658488,-37.998808],[175.658243,-38.000591],[175.657832,-38.00201],[175.658035,-38.003687],[175.658682,-38.005334],[175.658352,-38.006594],[175.65742,-38.007881],[175.657192,-38.007881],[175.65814,-38.006528],[175.658455,-38.00535],[175.657811,-38.003722],[175.657604,-38.002],[175.658018,-38.000563],[175.65826,-37.998794],[175.658383,-37.997014],[175.658578,-37.995595],[175.658704,-37.993816],[175.658713,-37.99203],[175.658555,-37.990185],[175.657718,-37.987327],[175.657493,-37.985297],[175.656349,-37.984181],[175.655117,-37.98298],[175.655198,-37.981853],[175.655481,-37.980468],[175.656055,-37.979157],[175.656238,-37.978108],[175.656225,-37.976754],[175.656422,-37.975408],[175.656659,-37.974341],[175.656977,-37.973016],[175.657304,-37.971692],[175.657502,-37.970616],[175.657484,-37.96921],[175.65712,-37.967807],[175.656835,-37.966716],[175.65676,-37.965355],[175.656964,-37.963994],[175.65738,-37.962946],[175.658004,-37.961672],[175.658379,-37.960357],[175.65851,-37.959264],[175.658405,-37.957889],[175.658251,-37.956503],[175.658513,-37.955072],[175.658704,-37.95394],[175.657881,-37.952682],[175.656456,-37.951576],[175.655462,-37.950751],[175.654113,-37.949976],[175.652563,-37.949417],[175.651301,-37.949],[175.649685,-37.948609],[175.647995,-37.948436],[175.646651,-37.948491],[175.64498,-37.94875],[175.643305,-37.949041],[175.641978,-37.949307],[175.640399,-37.949791],[175.63889,-37.950419],[175.637715,-37.950962],[175.636333,-37.951768],[175.634878,-37.952559],[175.633577,-37.953072],[175.631964,-37.953677],[175.630384,-37.954225],[175.629067,-37.954571],[175.627346,-37.95486],[175.625606,-37.954752],[175.624029,-37.954198],[175.62281,-37.953696],[175.621257,-37.953114],[175.61971,-37.952528],[175.618461,-37.952087],[175.616912,-37.951509],[175.61534,-37.950968],[175.614043,-37.950597],[175.61238,-37.950239],[175.610689,-37.950012],[175.609335,-37.949854],[175.60764,-37.949697],[175.605925,-37.949692],[175.604543,-37.949682],[175.602832,-37.949527],[175.60114,-37.94931],[175.599781,-37.949174],[175.598085,-37.948955],[175.596403,-37.948679],[175.595052,-37.948503],[175.59336,-37.948288],[175.591668,-37.948096],[175.59029,-37.948107],[175.588546,-37.948086],[175.586836,-37.947845],[175.585172,-37.94752],[175.583837,-37.947279],[175.582148,-37.946978],[175.58045,-37.946394],[175.578976,-37.945792],[175.577112,-37.945436],[175.575297,-37.945482],[175.573859,-37.945349],[175.572127,-37.945245],[175.570416,-37.945293],[175.569021,-37.945245],[175.567313,-37.944998],[175.56564,-37.944577],[175.564326,-37.944211],[175.562682,-37.943811],[175.561012,-37.943436],[175.559728,-37.943005],[175.558172,-37.942381],[175.556711,-37.941657],[175.555588,-37.94103],[175.554173,-37.940224],[175.553073,-37.939165],[175.552077,-37.938064],[175.551095,-37.937332],[175.549759,-37.936485],[175.54847,-37.935527],[175.547413,-37.934693],[175.546365,-37.933494],[175.545931,-37.932118],[175.545667,-37.931054],[175.545241,-37.929718],[175.544872,-37.928429],[175.544508,-37.927663],[175.543638,-37.927136],[175.543638,-37.927136],[175.543583,-37.927117],[175.543533,-37.927092],[175.543487,-37.927062],[175.543446,-37.927027],[175.543412,-37.926989],[175.543384,-37.926947],[175.543363,-37.926903],[175.54335,-37.926857],[175.543344,-37.92681],[175.543346,-37.926763],[175.543356,-37.926717],[175.543374,-37.926672],[175.543399,-37.926629],[175.54343,-37.926589],[175.543468,-37.926553],[175.543512,-37.926521],[175.543561,-37.926494],[175.543613,-37.926472],[175.543669,-37.926455],[175.543727,-37.926445],[175.543787,-37.92644],[175.543846,-37.926442],[175.543905,-37.92645],[175.543962,-37.926464]]]}},{"type":"Feature","properties":{"id":"centerline","kind":"centerline","name":"Approx. lake centre","style":"center"},"geometry":{"type":"LineString","coordinates":[[175.5438,-37.9268],[175.544685,-37.92754],[175.545055,-37.928404],[175.545353,-37.929706],[175.545778,-37.931034],[175.546042,-37.932098],[175.546469,-37.933456],[175.547502,-37.934636],[175.548549,-37.935463],[175.549834,-37.936417],[175.55117,-37.937264],[175.552164,-37.938006],[175.553164,-37.939111],[175.554251,-37.940159],[175.555654,-37.940957],[175.556774,-37.941582],[175.558228,-37.942303],[175.559776,-37.942924],[175.561049,-37.943351],[175.562714,-37.943725],[175.564362,-37.944125],[175.565676,-37.944492],[175.567341,-37.944911],[175.569034,-37.945155],[175.570416,-37.945203],[175.572129,-37.945155],[175.573869,-37.94526],[175.575301,-37.945392],[175.577124,-37.945347],[175.579014,-37.945707],[175.580499,-37.946313],[175.582184,-37.946892],[175.583863,-37.947192],[175.585198,-37.947432],[175.58686,-37.947757],[175.588556,-37.947996],[175.590291,-37.948017],[175.591677,-37.948006],[175.593377,-37.948199],[175.595071,-37.948414],[175.596424,-37.94859],[175.598106,-37.948867],[175.599797,-37.949086],[175.601157,-37.949221],[175.602848,-37.949438],[175.604551,-37.949592],[175.605926,-37.949602],[175.607647,-37.949607],[175.609349,-37.949765],[175.610707,-37.949923],[175.612405,-37.950151],[175.614077,-37.950511],[175.615383,-37.950885],[175.616959,-37.951427],[175.618509,-37.952005],[175.619758,-37.952446],[175.621306,-37.953032],[175.622861,-37.953615],[175.624078,-37.954116],[175.625634,-37.954665],[175.627339,-37.95477],[175.629038,-37.954484],[175.630342,-37.954141],[175.631917,-37.953596],[175.633527,-37.952991],[175.63482,-37.952482],[175.636267,-37.951695],[175.637651,-37.950887],[175.638835,-37.950341],[175.640352,-37.94971],[175.641943,-37.949221],[175.643279,-37.948954],[175.644957,-37.948662],[175.646636,-37.948402],[175.648,-37.948346],[175.649709,-37.948521],[175.651339,-37.948915],[175.652609,-37.949335],[175.65417,-37.949898],[175.655536,-37.950683],[175.656537,-37.951513],[175.657972,-37.952629],[175.658815,-37.953921],[175.658626,-37.955085],[175.658365,-37.956506],[175.658519,-37.957882],[175.658624,-37.959264],[175.658491,-37.960372],[175.658113,-37.961698],[175.657487,-37.962976],[175.657076,-37.964012],[175.656874,-37.965358],[175.656948,-37.966706],[175.657232,-37.967788],[175.657598,-37.9692],[175.657616,-37.970621],[175.657416,-37.971707],[175.657089,-37.973033],[175.656771,-37.974358],[175.656535,-37.97542],[175.656339,-37.976759],[175.656352,-37.978113],[175.656166,-37.979179],[175.655592,-37.98049],[175.655311,-37.981863],[175.655231,-37.982985],[175.657718,-37.985221],[175.657943,-37.987318],[175.658695,-37.990143],[175.658826,-37.992016],[175.658818,-37.993818],[175.658692,-37.995602],[175.658497,-37.997021],[175.658374,-37.998801],[175.658131,-38.000577],[175.657718,-38.002005],[175.657923,-38.003705],[175.658568,-38.005342],[175.658246,-38.006561],[175.657306,-38.007881]]}}]}